ONEWEB-0520             
1 54138U 22138AB  24304.57454818  .00000045  00000+0  79837-4 0  9998
2 54138  87.9168  63.2021 0001994  93.5299 266.6061 13.19725199 98399
ONEWEB-0521             
1 54139U 22138AC  24304.60774114  .00000116  00000+0  25795-3 0  9999
2 54139  87.9169  63.1867 0001460 106.5318 253.5975 13.19726618 98344
ONEWEB-0522             
1 54140U 22138AD  24304.58719894  .00000160  00000+0  36660-3 0  9994
2 54140  87.9166  63.1921 0001690  95.8166 264.3159 13.19725101 98384
ONEWEB-0523             
1 54141U 22138AE  24304.49118596  .00000187  00000+0  42712-3 0  9991
2 54141  87.9297  32.7408 0000779 113.6649 246.4567 13.20768463100809
ONEWEB-0524             
1 54142U 22138AF  24304.48013053 -.00000253  00000+0 -65439-3 0  9990
2 54142  87.9297  32.7463 0001412  60.3668 299.7606 13.20773062100801
ONEWEB-0525             
1 54143U 22138AG  24304.60614686  .00000119  00000+0  26428-3 0  9998
2 54143  87.9173  63.2015 0001894  97.0868 263.0480 13.19723850 98404
ONEWEB-0526             
1 54144U 22138AH  24304.56351228  .00000099  00000+0  21476-3 0  9999
2 54144  87.9167  63.2020 0001737  95.7025 264.4306 13.19725650 98378
ONEWEB-0529             
1 54145U 22138AJ  24304.56665025  .00000113  00000+0  24965-3 0  9996
2 54145  87.9175  63.2265 0001897  94.8667 265.2682 13.19724168 99266
